CCSDS_OMM_VERS = 2.0
CREATION_DATE  = 
ORIGINATOR     = 

OBJECT_NAME    = CZ-2C R/B
OBJECT_ID      = 2022-132E
CENTER_NAME    = EARTH
REF_FRAME      = TEME
TIME_SYSTEM    = UTC
MEAN_ELEMENT_THEORY = SGP/SGP4

EPOCH          = 2026-02-17T13:29:11.081184
MEAN_MOTION    = 15.60047566
ECCENTRICITY   = .0019607
INCLINATION    = 97.2956
RA_OF_ASC_NODE = 51.2981
ARG_OF_PERICENTER = 157.2132
MEAN_ANOMALY   = 202.9999

EPHEMERIS_TYPE = 0
CLASSIFICATION_TYPE = U
NORAD_CAT_ID   = 54039
ELEMENT_SET_NO = 999
REV_AT_EPOCH   = 18723
BSTAR          = .45237E-3
MEAN_MOTION_DOT = .36935E-3
MEAN_MOTION_DDOT = 0

CCSDS_OMM_VERS = 2.0
CREATION_DATE  = 
ORIGINATOR     = 

OBJECT_NAME    = GSLV R/B
OBJECT_ID      = 2022-138AN
CENTER_NAME    = EARTH
REF_FRAME      = TEME
TIME_SYSTEM    = UTC
MEAN_ELEMENT_THEORY = SGP/SGP4

EPOCH          = 2026-02-17T17:31:01.218144
MEAN_MOTION    = 14.96615875
ECCENTRICITY   = .00200657
INCLINATION    = 87.3873
RA_OF_ASC_NODE = 173.0404
ARG_OF_PERICENTER = 219.4341
MEAN_ANOMALY   = 140.5431

EPHEMERIS_TYPE = 0
CLASSIFICATION_TYPE = U
NORAD_CAT_ID   = 54149
ELEMENT_SET_NO = 999
REV_AT_EPOCH   = 18094
BSTAR          = .27325373E-3
MEAN_MOTION_DOT = .3152E-4
MEAN_MOTION_DDOT = 0

CCSDS_OMM_VERS = 2.0
CREATION_DATE  = 
ORIGINATOR     = 

OBJECT_NAME    = XRISM
OBJECT_ID      = 2023-137A
CENTER_NAME    = EARTH
REF_FRAME      = TEME
TIME_SYSTEM    = UTC
MEAN_ELEMENT_THEORY = SGP/SGP4

EPOCH          = 2026-02-17T08:46:08.423328
MEAN_MOTION    = 15.11241447
ECCENTRICITY   = .00082468
INCLINATION    = 31.0028
RA_OF_ASC_NODE = 55.0911
ARG_OF_PERICENTER = 197.0098
MEAN_ANOMALY   = 163.0265

EPHEMERIS_TYPE = 0
CLASSIFICATION_TYPE = U
NORAD_CAT_ID   = 57800
ELEMENT_SET_NO = 999
REV_AT_EPOCH   = 13471
BSTAR          = .32327511E-3
MEAN_MOTION_DOT = .5671E-4
MEAN_MOTION_DDOT = 0

CCSDS_OMM_VERS = 2.0
CREATION_DATE  = 
ORIGINATOR     = 

OBJECT_NAME    = ACS3
OBJECT_ID      = 2024-077B
CENTER_NAME    = EARTH
REF_FRAME      = TEME
TIME_SYSTEM    = UTC
MEAN_ELEMENT_THEORY = SGP/SGP4

EPOCH          = 2026-02-17T20:01:14.917152
MEAN_MOTION    = 13.88745291
ECCENTRICITY   = .00482217
INCLINATION    = 97.2179
RA_OF_ASC_NODE = 354.4099
ARG_OF_PERICENTER = 134.7289
MEAN_ANOMALY   = 225.7815

EPHEMERIS_TYPE = 0
CLASSIFICATION_TYPE = U
NORAD_CAT_ID   = 59588
ELEMENT_SET_NO = 999
REV_AT_EPOCH   = 9144
BSTAR          = .14852179E-1
MEAN_MOTION_DOT = .18092E-3
MEAN_MOTION_DDOT = 0

CCSDS_OMM_VERS = 2.0
CREATION_DATE  = 
ORIGINATOR     = 

OBJECT_NAME    = SZ-21 MODULE
OBJECT_ID      = 2025-246C
CENTER_NAME    = EARTH
REF_FRAME      = TEME
TIME_SYSTEM    = UTC
MEAN_ELEMENT_THEORY = SGP/SGP4

EPOCH          = 2026-02-17T19:35:02.690304
MEAN_MOTION    = 15.66996857
ECCENTRICITY   = .00019498
INCLINATION    = 41.4766
RA_OF_ASC_NODE = 325.5514
ARG_OF_PERICENTER = 296.4843
MEAN_ANOMALY   = 63.5798

EPHEMERIS_TYPE = 0
CLASSIFICATION_TYPE = U
NORAD_CAT_ID   = 66515
ELEMENT_SET_NO = 999
REV_AT_EPOCH   = 1495
BSTAR          = .28607767E-3
MEAN_MOTION_DOT = .31109E-3
MEAN_MOTION_DDOT = 0

